ONEWEB-0153             
1 48044U 21025C   24083.83709350 -.00000140  00000+0 -41861-3 0  9991
2 48044  87.8921 122.5346 0001973  98.9422 261.1931 13.13470796146515
ONEWEB-0154             
1 48045U 21025D   24083.83391987 -.00000156  00000+0 -46092-3 0  9993
2 48045  87.8918 122.5495 0001904  96.3492 263.7854 13.13470459146473
ONEWEB-0116             
1 48046U 21025E   24083.79901101  .00000237  00000+0  61323-3 0  9996
2 48046  87.8924 122.5227 0001947  88.8950 271.2402 13.13468335146615
ONEWEB-0150             
1 48047U 21025F   24083.84979316  .00000163  00000+0  41103-3 0  9998
2 48047  87.8915 122.5366 0002081  99.2181 260.9184 13.13470055146515
ONEWEB-0107             
1 48048U 21025G   24083.85138508  .00000254  00000+0  66145-3 0  9994
2 48048  87.8914 122.5342 0002171 103.9851 256.1520 13.13470427146497
ONEWEB-0101             
1 48049U 21025H   24083.81487750 -.00000137  00000+0 -40977-3 0  9994
2 48049  87.8922 122.5530 0001870  98.7769 261.3571 13.13469163146466
ONEWEB-0113             
1 48050U 21025J   24083.86884138  .00000401  00000+0  10628-2 0  9993
2 48050  87.8922 122.5245 0001947  90.3737 269.7616 13.13468404146558
ONEWEB-0112             
1 48051U 21025K   24083.85614398  .00000356  00000+0  93938-3 0  9997
2 48051  87.8912 122.5314 0002073  95.6031 264.5335 13.13470034146565
